CYGNUS NG-23            
1 65616U 25208A   25347.57296250  .00012521  00000+0  23044-3 0  9994
2 65616  51.6303 138.3533 0003230 244.1175 115.9481 15.49569091   224
DRAGONFLY               
1 65729U 98067XH  25347.69198777  .00179632  00000+0  13021-2 0  9990
2 65729  51.6241 130.8872 0006817 284.2780  75.7461 15.72310549 13317
1998-067XK              
1 65731U 98067XK  25347.69153018  .00104411  00000+0  99454-3 0  9990
2 65731  51.6277 132.4028 0005022 252.6654 107.3793 15.65971562 13293
RSP-03                  
1 65732U 98067XL  25347.69463906  .00138092  00000+0  11602-2 0  9991
2 65732  51.6251 131.6633 0005764 257.9098 102.1253 15.68925685 13317
GHS-01                  
1 65733U 98067XM  25347.64190642  .00231510  00000+0  14639-2 0  9993
2 65733  51.6271 130.5592 0007396 286.1274  73.8911 15.75321114 13326
YOTSUBA-KULOVER         
1 65941U 98067XN  25346.71267056  .00088760  00000+0  10939-2 0  9991
2 65941  51.6283 140.1142 0001404 246.8378 113.2466 15.59447843  9857
BOTAN                   
1 65942U 98067XP  25347.61342704  .00110558  00000+0  11782-2 0  9994
2 65942  51.6279 134.8795 0003001 244.7732 115.2952 15.63119273 10002
E-KAGAKU-1              
1 65943U 98067XQ  25344.27717868  .00100705  00000+0  12589-2 0  9990
2 65943  51.6298 152.3458 0005250 191.2269 168.8608 15.59004320  9476
HRC MONOBLOCK CAMERA    
1 66052U 98067XR  25347.67997314  .00042763  00000+0  64745-3 0  9996
2 66052  51.6291 136.8186 0003186 188.7362 171.3574 15.54222360  8984
HTV-X1                  
1 66174U 25241A   25347.57296250  .00012521  00000+0  23044-3 0  9991
2 66174  51.6303 138.3533 0003230 244.1175 115.9481 15.49569091   516
SZ-21 MODULE            
1 66515U 25246C   25347.24231733  .00039667  00000+0  43386-3 0  9995
2 66515  41.4775  12.9802 0006286 263.0797  96.9328 15.62521016  4528
SHENZHOU-22             
1 66645U 25272A   25347.54735425  .00023242  00000+0  29086-3 0  9991
2 66645  41.4684  11.8051 0008179  37.3165 322.8241 15.59213599263576
